{
  "type": "FeatureCollection",
  "features": [
    {
      "type": "Feature",
      "properties": {
        "norad_id": 57400,
        "name": "TIANMU-1 08",
        "group": "weather",
        "lat": -75.71544060023578,
        "lon": 56.711431597042406,
        "alt_km": 494.698986417342,
        "timestamp": "2025-12-02T15:49:06.826589+00:00",
        "meta_object_name": "TIANMU-1 08",
        "meta_object_id": "2023-101B",
        "meta_epoch": "2025-12-02T08:17:57.062112",
        "meta_mean_motion": 15.27817911,
        "meta_eccentricity": 0.00074408,
        "meta_inclination": 97.2887,
        "meta_ra_of_asc_node": 26.2263,
        "meta_arg_of_pericenter": 113.2167,
        "meta_mean_anomaly": 246.9857,
        "meta_ephemeris_type": 0,
        "meta_classification_type": "U",
        "meta_norad_cat_id": 57400,
        "meta_element_set_no": 999,
        "meta_rev_at_epoch": 13156,
        "meta_bstar": 0.00033942765,
        "meta_mean_motion_dot": 9.157e-05,
        "meta_mean_motion_ddot": 0,
        "tle_line1": "1 57400U 23101B   25336.34579933  .00009157  00000+0  33943-3 0  9991",
        "tle_line2": "2 57400  97.2887  26.2263 0007440 113.2167 246.9857 15.27817911131565"
      },
      "geometry": {
        "type": "Point",
        "coordinates": [
          56.711431597042406,
          -75.71544060023578
        ]
      }
    },
    {
      "type": "Feature",
      "properties": {
        "norad_id": 57401,
        "name": "TIANMU-1 09",
        "group": "weather",
        "lat": -6.099582772372573,
        "lon": 26.83474257220895,
        "alt_km": 488.2124475277569,
        "timestamp": "2025-12-02T15:49:06.826599+00:00",
        "meta_object_name": "TIANMU-1 09",
        "meta_object_id": "2023-101C",
        "meta_epoch": "2025-12-02T06:24:51.388416",
        "meta_mean_motion": 15.27837796,
        "meta_eccentricity": 0.00067092,
        "meta_inclination": 97.2844,
        "meta_ra_of_asc_node": 25.6686,
        "meta_arg_of_pericenter": 112.4346,
        "meta_mean_anomaly": 247.7605,
        "meta_ephemeris_type": 0,
        "meta_classification_type": "U",
        "meta_norad_cat_id": 57401,
        "meta_element_set_no": 999,
        "meta_rev_at_epoch": 13155,
        "meta_bstar": 0.00033210002,
        "meta_mean_motion_dot": 8.962e-05,
        "meta_mean_motion_ddot": 0,
        "tle_line1": "1 57401U 23101C   25336.26726144  .00008962  00000+0  33210-3 0  9991",
        "tle_line2": "2 57401  97.2844  25.6686 0006709 112.4346 247.7605 15.27837796131550"
      },
      "geometry": {
        "type": "Point",
        "coordinates": [
          26.83474257220895,
          -6.099582772372573
        ]
      }
    },
    {
      "type": "Feature",
      "properties": {
        "norad_id": 57402,
        "name": "TIANMU-1 10",
        "group": "weather",
        "lat": 13.395025460921932,
        "lon": -151.36168923752473,
        "alt_km": 480.0695979869315,
        "timestamp": "2025-12-02T15:49:06.826609+00:00",
        "meta_object_name": "TIANMU-1 10",
        "meta_object_id": "2023-101D",
        "meta_epoch": "2025-12-02T07:14:02.584320",
        "meta_mean_motion": 15.27828635,
        "meta_eccentricity": 0.00084576,
        "meta_inclination": 97.2925,
        "meta_ra_of_asc_node": 26.5408,
        "meta_arg_of_pericenter": 113.6387,
        "meta_mean_anomaly": 246.5742,
        "meta_ephemeris_type": 0,
        "meta_classification_type": "U",
        "meta_norad_cat_id": 57402,
        "meta_element_set_no": 999,
        "meta_rev_at_epoch": 13155,
        "meta_bstar": 0.0003461723,
        "meta_mean_motion_dot": 9.346e-05,
        "meta_mean_motion_ddot": 0,
        "tle_line1": "1 57402U 23101D   25336.30141880  .00009346  00000+0  34617-3 0  9994",
        "tle_line2": "2 57402  97.2925  26.5408 0008457 113.6387 246.5742 15.27828635131554"
      },
      "geometry": {
        "type": "Point",
        "coordinates": [
          -151.36168923752473,
          13.395025460921932
        ]
      }
    },
    {
      "type": "Feature",
      "properties": {
        "norad_id": 57490,
        "name": "FENGYUN 3F",
        "group": "weather",
        "lat": 20.674591634138036,
        "lon": 41.79839105252314,
        "alt_km": 825.3836023482136,
        "timestamp": "2025-12-02T15:49:06.826621+00:00",
        "meta_object_name": "FENGYUN 3F",
        "meta_object_id": "2023-111A",
        "meta_epoch": "2025-12-02T07:15:51.049152",
        "meta_mean_motion": 14.19889062,
        "meta_eccentricity": 7.08e-05,
        "meta_inclination": 98.7096,
        "meta_ra_of_asc_node": 44.7639,
        "meta_arg_of_pericenter": 84.4207,
        "meta_mean_anomaly": 275.705,
        "meta_ephemeris_type": 0,
        "meta_classification_type": "U",
        "meta_norad_cat_id": 57490,
        "meta_element_set_no": 999,
        "meta_rev_at_epoch": 12092,
        "meta_bstar": 8.1929648e-05,
        "meta_mean_motion_dot": 1.3e-06,
        "meta_mean_motion_ddot": 0,
        "tle_line1": "1 57490U 23111A   25336.30267418  .00000130  00000+0  81930-4 0  9991",
        "tle_line2": "2 57490  98.7096  44.7639 0000708  84.4207 275.7050 14.19889062120927"
      },
      "geometry": {
        "type": "Point",
        "coordinates": [
          41.79839105252314,
          20.674591634138036
        ]
      }
    },
    {
      "type": "Feature",
      "properties": {
        "norad_id": 58584,
        "name": "ARKTIKA-M 2",
        "group": "weather",
        "lat": 60.514749182720706,
        "lon": -67.30744107903551,
        "alt_km": 35428.30362022701,
        "timestamp": "2025-12-02T15:49:06.826633+00:00",
        "meta_object_name": "ARKTIKA-M 2",
        "meta_object_id": "2023-198A",
        "meta_epoch": "2025-12-01T08:43:04.634112",
        "meta_mean_motion": 2.00605427,
        "meta_eccentricity": 0.68640288,
        "meta_inclination": 63.2218,
        "meta_ra_of_asc_node": 176.1298,
        "meta_arg_of_pericenter": 268.1507,
        "meta_mean_anomaly": 18.8441,
        "meta_ephemeris_type": 0,
        "meta_classification_type": "U",
        "meta_norad_cat_id": 58584,
        "meta_element_set_no": 999,
        "meta_rev_at_epoch": 1435,
        "meta_bstar": 0,
        "meta_mean_motion_dot": 2.37e-06,
        "meta_mean_motion_ddot": 0,
        "tle_line1": "1 58584U 23198A   25335.36324808  .00000237  00000+0  00000+0 0  9995",
        "tle_line2": "2 58584  63.2218 176.1298 6864028 268.1507  18.8441  2.00605427 14356"
      },
      "geometry": {
        "type": "Point",
        "coordinates": [
          -67.30744107903551,
          60.514749182720706
        ]
      }
    },
    {
      "type": "Feature",
      "properties": {
        "norad_id": 58645,
        "name": "TIANMU-1 11",
        "group": "weather",
        "lat": 68.0995614778163,
        "lon": -164.77871717566563,
        "alt_km": 489.13943987144376,
        "timestamp": "2025-12-02T15:49:06.826645+00:00",
        "meta_object_name": "TIANMU-1 11",
        "meta_object_id": "2023-205A",
        "meta_epoch": "2025-12-02T07:27:29.625984",
        "meta_mean_motion": 15.24397794,
        "meta_eccentricity": 0.00089667,
        "meta_inclination": 97.3616,
        "meta_ra_of_asc_node": 356.1192,
        "meta_arg_of_pericenter": 350.9926,
        "meta_mean_anomaly": 9.115,
        "meta_ephemeris_type": 0,
        "meta_classification_type": "U",
        "meta_norad_cat_id": 58645,
        "meta_element_set_no": 999,
        "meta_rev_at_epoch": 10750,
        "meta_bstar": 0.00028954201,
        "meta_mean_motion_dot": 7.034e-05,
        "meta_mean_motion_ddot": 0,
        "tle_line1": "1 58645U 23205A   25336.31075956  .00007034  00000+0  28954-3 0  9999",
        "tle_line2": "2 58645  97.3616 356.1192 0008966 350.9926   9.1150 15.24397794107502"
      },
      "geometry": {
        "type": "Point",
        "coordinates": [
          -164.77871717566563,
          68.0995614778163
        ]
      }
    },
    {
      "type": "Feature",
      "properties": {
        "norad_id": 58646,
        "name": "TIANMU-1 12",
        "group": "weather",
        "lat": -33.365813788542944,
        "lon": 1.1532669161485187,
        "alt_km": 494.5113704924215,
        "timestamp": "2025-12-02T15:49:06.826655+00:00",
        "meta_object_name": "TIANMU-1 12",
        "meta_object_id": "2023-205B",
        "meta_epoch": "2025-12-02T08:05:18.172896",
        "meta_mean_motion": 15.24310694,
        "meta_eccentricity": 0.00067434,
        "meta_inclination": 97.3604,
        "meta_ra_of_asc_node": 355.9538,
        "meta_arg_of_pericenter": 336.8385,
        "meta_mean_anomaly": 23.2547,
        "meta_ephemeris_type": 0,
        "meta_classification_type": "U",
        "meta_norad_cat_id": 58646,
        "meta_element_set_no": 999,
        "meta_rev_at_epoch": 10749,
        "meta_bstar": 0.00033771363,
        "meta_mean_motion_dot": 8.192e-05,
        "meta_mean_motion_ddot": 0,
        "tle_line1": "1 58646U 23205B   25336.33701589  .00008192  00000+0  33771-3 0  9999",
        "tle_line2": "2 58646  97.3604 355.9538 0006743 336.8385  23.2547 15.24310694107493"
      },
      "geometry": {
        "type": "Point",
        "coordinates": [
          1.1532669161485187,
          -33.365813788542944
        ]
      }
    }
  ]
}